{"type": "FeatureCollection", "features": [{"type": "Feature", "properties": {"norad_id": 37846, "name": "GSAT0101 (GALILEO-PFM)", "group": "galileo", "lat": -56.33200054601467, "lon": -89.84754388548767, "alt_km": 23221.039922510616, "timestamp": "2025-12-06T07:31:40.499812+00:00", "meta": {"OBJECT_NAME": "GSAT0101 (GALILEO-PFM)", "OBJECT_ID": "2011-060A", "EPOCH": "2025-12-04T02:27:04.519296", "MEAN_MOTION": 1.70475494, "ECCENTRICITY": 0.00028233, "INCLINATION": 57.0547, "RA_OF_ASC_NODE": 347.0545, "ARG_OF_PERICENTER": 310.6019, "MEAN_ANOMALY": 49.4066, "EPHEMERIS_TYPE": 0, "CLASSIFICATION_TYPE": "U", "NORAD_CAT_ID": 37846, "ELEMENT_SET_NO": 999, "REV_AT_EPOCH": 8779, "BSTAR": 0, "MEAN_MOTION_DOT": -7e-07, "MEAN_MOTION_DDOT": 0}, "tle": {"line1": "1 37846U 11060A   25338.10213564 -.00000070  00000+0  00000+0 0  9995", "line2": "2 37846  57.0547 347.0545 0002823 310.6019  49.4066  1.70475494 87792"}}, "geometry": {"type": "Point", "coordinates": [-89.84754388548767, -56.33200054601467]}}, {"type": "Feature", "properties": {"norad_id": 37847, "name": "GSAT0102 (GALILEO-FM2)", "group": "galileo", "lat": -30.536977422709676, "lon": -35.5003207576412, "alt_km": 23212.103162677642, "timestamp": "2025-12-06T07:31:40.499836+00:00", "meta": {"OBJECT_NAME": "GSAT0102 (GALILEO-FM2)", "OBJECT_ID": "2011-060B", "EPOCH": "2025-12-05T04:42:38.564352", "MEAN_MOTION": 1.70475694, "ECCENTRICITY": 0.00048427, "INCLINATION": 57.0552, "RA_OF_ASC_NODE": 347.0252, "ARG_OF_PERICENTER": 307.1958, "MEAN_ANOMALY": 49.7725, "EPHEMERIS_TYPE": 0, "CLASSIFICATION_TYPE": "U", "NORAD_CAT_ID": 37847, "ELEMENT_SET_NO": 999, "REV_AT_EPOCH": 8781, "BSTAR": 0, "MEAN_MOTION_DOT": -7.6e-07, "MEAN_MOTION_DDOT": 0}, "tle": {"line1": "1 37847U 11060B   25339.19627968 -.00000076  00000+0  00000+0 0  9999", "line2": "2 37847  57.0552 347.0252 0004842 307.1958  49.7725  1.70475694 87810"}}, "geometry": {"type": "Point", "coordinates": [-35.5003207576412, -30.536977422709676]}}, {"type": "Feature", "properties": {"norad_id": 38857, "name": "GSAT0103 (GALILEO-FM3)", "group": "galileo", "lat": -52.04962778286895, "lon": -12.130862784498047, "alt_km": 23221.401248509355, "timestamp": "2025-12-06T07:31:40.499851+00:00", "meta": {"OBJECT_NAME": "GSAT0103 (GALILEO-FM3)", "OBJECT_ID": "2012-055A", "EPOCH": "2025-12-01T05:01:21.613152", "MEAN_MOTION": 1.70473256, "ECCENTRICITY": 0.00023005, "INCLINATION": 55.6823, "RA_OF_ASC_NODE": 106.9832, "ARG_OF_PERICENTER": 267.1494, "MEAN_ANOMALY": 92.7944, "EPHEMERIS_TYPE": 0, "CLASSIFICATION_TYPE": "U", "NORAD_CAT_ID": 38857, "ELEMENT_SET_NO": 999, "REV_AT_EPOCH": 8163, "BSTAR": 0, "MEAN_MOTION_DOT": 4.2e-07, "MEAN_MOTION_DDOT": 0}, "tle": {"line1": "1 38857U 12055A   25335.20927793  .00000042  00000+0  00000+0 0  9995", "line2": "2 38857  55.6823 106.9832 0002300 267.1494  92.7944  1.70473256 81637"}}, "geometry": {"type": "Point", "coordinates": [-12.130862784498047, -52.04962778286895]}}, {"type": "Feature", "properties": {"norad_id": 40128, "name": "GSAT0201 (GALILEO 5)", "group": "galileo", "lat": -47.2651168500613, "lon": -148.30632274567355, "alt_km": 22613.609452677254, "timestamp": "2025-12-06T07:31:40.499865+00:00", "meta": {"OBJECT_NAME": "GSAT0201 (GALILEO 5)", "OBJECT_ID": "2014-050A", "EPOCH": "2025-11-28T09:00:06.762528", "MEAN_MOTION": 1.85519533, "ECCENTRICITY": 0.16464881, "INCLINATION": 49.0938, "RA_OF_ASC_NODE": 281.6492, "ARG_OF_PERICENTER": 171.7362, "MEAN_ANOMALY": 191.3851, "EPHEMERIS_TYPE": 0, "CLASSIFICATION_TYPE": "U", "NORAD_CAT_ID": 40128, "ELEMENT_SET_NO": 999, "REV_AT_EPOCH": 7459, "BSTAR": 0, "MEAN_MOTION_DOT": -4.8e-07, "MEAN_MOTION_DDOT": 0}, "tle": {"line1": "1 40128U 14050A   25332.37507827 -.00000048  00000+0  00000+0 0  9990", "line2": "2 40128  49.0938 281.6492 1646488 171.7362 191.3851  1.85519533 74599"}}, "geometry": {"type": "Point", "coordinates": [-148.30632274567355, -47.2651168500613]}}, {"type": "Feature", "properties": {"norad_id": 40129, "name": "GSAT0202 (GALILEO 6)", "group": "galileo", "lat": 46.90241069346245, "lon": -11.945395846100801, "alt_km": 21450.772849969544, "timestamp": "2025-12-06T07:31:40.499878+00:00", "meta": {"OBJECT_NAME": "GSAT0202 (GALILEO 6)", "OBJECT_ID": "2014-050B", "EPOCH": "2025-12-02T22:38:17.581056", "MEAN_MOTION": 1.8552031, "ECCENTRICITY": 0.1647571, "INCLINATION": 49.1042, "RA_OF_ASC_NODE": 280.5465, "ARG_OF_PERICENTER": 172.6616, "MEAN_ANOMALY": 190.1192, "EPHEMERIS_TYPE": 0, "CLASSIFICATION_TYPE": "U", "NORAD_CAT_ID": 40129, "ELEMENT_SET_NO": 999, "REV_AT_EPOCH": 7684, "BSTAR": 0, "MEAN_MOTION_DOT": -5.9e-07, "MEAN_MOTION_DDOT": 0}, "tle": {"line1": "1 40129U 14050B   25336.94325904 -.00000059  00000+0  00000+0 0  9994", "line2": "2 40129  49.1042 280.5465 1647571 172.6616 190.1192  1.85520310 76841"}}, "geometry": {"type": "Point", "coordinates": [-11.945395846100801, 46.90241069346245]}}, {"type": "Feature", "properties": {"norad_id": 40544, "name": "GSAT0203 (GALILEO 7)", "group": "galileo", "lat": 42.236537447161595, "lon": 23.265694048537256, "alt_km": 23232.60102697095, "timestamp": "2025-12-06T07:31:40.499889+00:00", "meta": {"OBJECT_NAME": "GSAT0203 (GALILEO 7)", "OBJECT_ID": "2015-017A", "EPOCH": "2025-12-03T07:02:53.463840", "MEAN_MOTION": 1.70475768, "ECCENTRICITY": 0.00065008, "INCLINATION": 56.8485, "RA_OF_ASC_NODE": 346.9379, "ARG_OF_PERICENTER": 269.0414, "MEAN_ANOMALY": 90.9202, "EPHEMERIS_TYPE": 0, "CLASSIFICATION_TYPE": "U", "NORAD_CAT_ID": 40544, "ELEMENT_SET_NO": 999, "REV_AT_EPOCH": 6586, "BSTAR": 0, "MEAN_MOTION_DOT": -6.7e-07, "MEAN_MOTION_DDOT": 0}, "tle": {"line1": "1 40544U 15017A   25337.29367435 -.00000067  00000+0  00000+0 0  9992", "line2": "2 40544  56.8485 346.9379 0006500 269.0414  90.9202  1.70475768 65865"}}, "geometry": {"type": "Point", "coordinates": [23.265694048537256, 42.236537447161595]}}, {"type": "Feature", "properties": {"norad_id": 40545, "name": "GSAT0204 (GALILEO 8)", "group": "galileo", "lat": -54.52238627262546, "lon": -126.62069829818107, "alt_km": 23209.408432422853, "timestamp": "2025-12-06T07:31:40.499901+00:00", "meta": {"OBJECT_NAME": "GSAT0204 (GALILEO 8)", "OBJECT_ID": "2015-017B", "EPOCH": "2025-12-04T03:15:24.834240", "MEAN_MOTION": 1.70475395, "ECCENTRICITY": 0.00062587, "INCLINATION": 56.8537, "RA_OF_ASC_NODE": 346.9325, "ARG_OF_PERICENTER": 261.1307, "MEAN_ANOMALY": 98.8308, "EPHEMERIS_TYPE": 0, "CLASSIFICATION_TYPE": "U", "NORAD_CAT_ID": 40545, "ELEMENT_SET_NO": 999, "REV_AT_EPOCH": 2892, "BSTAR": 0, "MEAN_MOTION_DOT": -7.1e-07, "MEAN_MOTION_DDOT": 0}, "tle": {"line1": "1 40545U 15017B   25338.13570410 -.00000071  00000+0  00000+0 0  9991", "line2": "2 40545  56.8537 346.9325 0006258 261.1307  98.8308  1.70475395 28925"}}, "geometry": {"type": "Point", "coordinates": [-126.62069829818107, -54.52238627262546]}}, {"type": "Feature", "properties": {"norad_id": 40889, "name": "GSAT0205 (GALILEO 9)", "group": "galileo", "lat": 30.87834129993493, "lon": -108.32152787646733, "alt_km": 23201.165560691785, "timestamp": "2025-12-06T07:31:40.499912+00:00", "meta": {"OBJECT_NAME": "GSAT0205 (GALILEO 9)", "OBJECT_ID": "2015-045A", "EPOCH": "2025-12-03T21:42:02.149056", "MEAN_MOTION": 1.70472902, "ECCENTRICITY": 0.0005859, "INCLINATION": 55.0066, "RA_OF_ASC_NODE": 227.0025, "ARG_OF_PERICENTER": 38.6315, "MEAN_ANOMALY": 321.5029, "EPHEMERIS_TYPE": 0, "CLASSIFICATION_TYPE": "U", "NORAD_CAT_ID": 40889, "ELEMENT_SET_NO": 999, "REV_AT_EPOCH": 6368, "BSTAR": 0, "MEAN_MOTION_DOT": 4e-07, "MEAN_MOTION_DDOT": 0}, "tle": {"line1": "1 40889U 15045A   25337.90419154  .00000040  00000+0  00000+0 0  9999", "line2": "2 40889  55.0066 227.0025 0005859  38.6315 321.5029  1.70472902 63681"}}, "geometry": {"type": "Point", "coordinates": [-108.32152787646733, 30.87834129993493]}}, {"type": "Feature", "properties": {"norad_id": 40890, "name": "GSAT0206 (GALILEO 10)", "group": "galileo", "lat": -54.47014616900276, "lon": 125.43751569380879, "alt_km": 23234.286228737645, "timestamp": "2025-12-06T07:31:40.499923+00:00", "meta": {"OBJECT_NAME": "GSAT0206 (GALILEO 10)", "OBJECT_ID": "2015-045B", "EPOCH": "2025-12-01T18:40:58.746144", "MEAN_MOTION": 1.70473031, "ECCENTRICITY": 0.0003438, "INCLINATION": 55.0064, "RA_OF_ASC_NODE": 227.0564, "ARG_OF_PERICENTER": 30.2471, "MEAN_ANOMALY": 329.8532, "EPHEMERIS_TYPE": 0, "CLASSIFICATION_TYPE": "U", "NORAD_CAT_ID": 40890, "ELEMENT_SET_NO": 999, "REV_AT_EPOCH": 6367, "BSTAR": 0, "MEAN_MOTION_DOT": 3.4e-07, "MEAN_MOTION_DDOT": 0}, "tle": {"line1": "1 40890U 15045B   25335.77845771  .00000034  00000+0  00000+0 0  9995", "line2": "2 40890  55.0064 227.0564 0003438  30.2471 329.8532  1.70473031 63674"}}, "geometry": {"type": "Point", "coordinates": [125.43751569380879, -54.47014616900276]}}, {"type": "Feature", "properties": {"norad_id": 41174, "name": "GSAT0209 (GALILEO 12)", "group": "galileo", "lat": 16.249527322768223, "lon": -84.9199816066874, "alt_km": 23226.93414719342, "timestamp": "2025-12-06T07:31:40.499934+00:00", "meta": {"OBJECT_NAME": "GSAT0209 (GALILEO 12)", "OBJECT_ID": "2015-079A", "EPOCH": "2025-12-01T22:43:10.411392", "MEAN_MOTION": 1.70474306, "ECCENTRICITY": 0.0002352, "INCLINATION": 55.7062, "RA_OF_ASC_NODE": 106.6773, "ARG_OF_PERICENTER": 357.4206, "MEAN_ANOMALY": 2.5431, "EPHEMERIS_TYPE": 0, "CLASSIFICATION_TYPE": "U", "NORAD_CAT_ID": 41174, "ELEMENT_SET_NO": 999, "REV_AT_EPOCH": 6141, "BSTAR": 0, "MEAN_MOTION_DOT": 3.5e-07, "MEAN_MOTION_DDOT": 0}, "tle": {"line1": "1 41174U 15079A   25335.94664828  .00000035  00000+0  00000+0 0  9990", "line2": "2 41174  55.7062 106.6773 0002352 357.4206   2.5431  1.70474306 61412"}}, "geometry": {"type": "Point", "coordinates": [-84.9199816066874, 16.249527322768223]}}]}